[
    {
        "Altitude(m)": 610405.2951240643,
        "Argument of Periapsis(deg)": 0.0,
        "Eccentricity": 0.0,
        "Inclination(deg)": 60.0,
        "Latitude(deg)": 52.11119458439164,
        "Longitude(deg)": -147.52245168968668,
        "Mean Anomaly(deg)": 114.5455,
        "RAAN(deg)": 180.0,
        "Satellite Name": "Test1 799",
        "Satellite Number": 799,
        "Semi-Major Axis(m)": 6980739.136638005,
        "Time(s)": 0
    },
    {
        "Altitude(m)": 610321.8675203769,
        "Argument of Periapsis(deg)": 0.00010418945913296404,
        "Eccentricity": 0.0,
        "Inclination(deg)": 60.0,
        "Latitude(deg)": 51.745908193777915,
        "Longitude(deg)": -146.7535608798607,
        "Mean Anomaly(deg)": 115.16560614546182,
        "RAAN(deg)": 179.99957995086024,
        "Satellite Name": "Test1 799",
        "Satellite Number": 799,
        "Semi-Major Axis(m)": 6980739.136638005,
        "Time(s)": 10
    }
]